     2.11           N: GPS NAV DATA                         RINEX VERSION / TYPE
CONVBIN 2.4.2                           20250419 064306 UTC PGM / RUN BY / DATE 
log: /home/ronny/gnss-rover/output.ubx                       COMMENT             
format: u-blox                                              COMMENT             
                                                            END OF HEADER       
30 25  4 19  6  0  0.0 -.166204292327E-03  .943600753089E-11  .000000000000E+00
     .150000000000E+02 -.268750000000E+01  .547165648788E-08  .590662368944E+00
     .875443220139E-07  .762852129992E-02  .661984086037E-05  .515369364738E+04
     .540000000000E+06 -.130385160446E-07 -.606492116865E+00  .540167093277E-07
     .935669959918E+00  .237375000000E+03 -.238886177128E+01 -.847963892528E-08
    -.617882880159E-10  .100000000000E+01  .236200000000E+04  .000000000000E+00
     .240000000000E+01  .000000000000E+00  .372529029846E-08  .150000000000E+02
     .535536000000E+06  .400000000000E+01
 6 25  4 19  6  0  0.0 -.312859192491E-03 -.209183781408E-10  .000000000000E+00
     .840000000000E+02  .968750000000E+01  .378444335154E-08  .157728352584E+01
     .605359673500E-06  .343600637279E-02  .291503965855E-05  .515355274010E+04
     .540000000000E+06  .596046447754E-07  .255961384599E+01  .745058059692E-07
     .988906672344E+00  .336437500000E+03 -.642684631149E+00 -.784854120896E-08
     .325013538118E-10  .100000000000E+01  .236200000000E+04  .000000000000E+00
     .240000000000E+01  .000000000000E+00  .372529029846E-08  .840000000000E+02
     .535536000000E+06  .400000000000E+01
 7 25  4 19  5 59 44.0 -.219307839870E-04 -.227373675443E-11  .000000000000E+00
     .350000000000E+02 -.318750000000E+01  .520343102950E-08  .783576312516E+00
     .540167093277E-07  .195448109880E-01  .748597085476E-05  .515372315598E+04
     .539984000000E+06 -.223517417908E-06 -.602224618055E+00  .121071934700E-06
     .950483465463E+00  .236875000000E+03 -.205677164893E+01 -.852178353792E-08
    -.143220251413E-09  .100000000000E+01  .236200000000E+04  .000000000000E+00
     .240000000000E+01  .000000000000E+00 -.107102096081E-07  .350000000000E+02
     .535536000000E+06  .400000000000E+01
22 25  4 19  6  0  0.0 -.102447345853E-03 -.454747350886E-12  .000000000000E+00
     .350000000000E+02  .375312500000E+02  .437589655937E-08 -.217007809057E+01
     .189803540707E-05  .131809208542E-01  .868178904057E-05  .515366132736E+04
     .540000000000E+06 -.558793544769E-08  .534672311568E+00  .350177288055E-06
     .959504814587E+00  .212062500000E+03 -.106334954535E+01 -.770567811528E-08
    -.483234414367E-09  .100000000000E+01  .236200000000E+04  .000000000000E+00
     .240000000000E+01  .000000000000E+00 -.111758708954E-07  .350000000000E+02
     .535536000000E+06  .400000000000E+01
20 25  4 19  5 59 44.0  .364956911653E-03 -.227373675443E-12  .000000000000E+00
     .260000000000E+02 -.780625000000E+02  .447840082908E-08  .184210437538E+01
    -.399351119995E-05  .353032804560E-02  .494346022606E-05  .515375373650E+04
     .539984000000E+06 -.139698386192E-06 -.287840481999E+01 -.465661287308E-07
     .958352241412E+00  .279437500000E+03 -.226954586406E+01 -.816355433052E-08
     .585738684082E-10  .100000000000E+01  .236200000000E+04  .000000000000E+00
     .240000000000E+01  .000000000000E+00 -.838190317154E-08  .260000000000E+02
     .535536000000E+06  .400000000000E+01
11 25  4 19  6  0  0.0 -.726331956685E-03  .522959453519E-11  .000000000000E+00
     .136000000000E+03  .703125000000E+01  .430017911972E-08  .281212869594E+01
     .519677996635E-06  .169999559876E-02  .278651714325E-05  .515364398193E+04
     .540000000000E+06  .633299350739E-07  .258539653219E+01 -.502914190292E-07
     .965657160457E+00  .327812500000E+03 -.238444466715E+01 -.813498171178E-08
     .982183769039E-10  .100000000000E+01  .236200000000E+04  .000000000000E+00
     .240000000000E+01  .000000000000E+00 -.884756445885E-08  .648000000000E+03
     .535536000000E+06  .400000000000E+01
19 25  4 19  6  0  0.0  .620232429355E-03  .375166564481E-11  .000000000000E+00
     .320000000000E+02  .830625000000E+02  .426732060817E-08 -.808447801176E+00
     .433996319771E-05  .104005953763E-01  .620447099209E-05  .515362570190E+04
     .540000000000E+06 -.838190317154E-07  .159544751755E+01 -.299885869026E-06
     .962956239175E+00  .266062500000E+03  .274570054545E+01 -.795854579109E-08
     .321441960776E-11  .100000000000E+01  .236200000000E+04  .000000000000E+00
     .240000000000E+01  .000000000000E+00 -.153668224812E-07  .320000000000E+02
     .535536000000E+06  .400000000000E+01
 3 25  4 19  5 59 44.0  .686556100845E-03  .272848410532E-11  .000000000000E+00
     .170000000000E+02 -.697500000000E+02  .382944522605E-08  .406585685274E+00
    -.388734042645E-05  .601480365731E-02  .602751970291E-05  .515354650688E+04
     .539984000000E+06 -.502914190292E-07 -.268841119153E+01  .242143869400E-07
     .989387434038E+00  .279843750000E+03  .113770073435E+01 -.785139847083E-08
     .760745973838E-10  .100000000000E+01  .236200000000E+04  .000000000000E+00
     .240000000000E+01  .000000000000E+00  .139698386192E-08  .170000000000E+02
     .535536000000E+06  .400000000000E+01
 4 25  4 19  6  0  0.0  .555830541998E-03  .488853402203E-11  .000000000000E+00
     .202000000000E+03 -.415625000000E+02  .441946980294E-08 -.303173707771E+01
    -.211410224438E-05  .326332182158E-02  .819191336632E-05  .515363746452E+04
     .540000000000E+06 -.223517417908E-07 -.161344653745E+01 -.391155481339E-07
     .967142402666E+00  .228968750000E+03 -.289502625968E+01 -.778425281680E-08
     .342871424828E-09  .100000000000E+01  .236200000000E+04  .000000000000E+00
     .240000000000E+01  .000000000000E+00 -.465661287308E-08  .202000000000E+03
     .535536000000E+06  .400000000000E+01
14 25  4 19  6  0  0.0  .632819253951E-03  .579802872380E-11  .000000000000E+00
     .450000000000E+02  .270312500000E+02  .490913305653E-08 -.542878249172E-01
     .121071934700E-05  .564447906800E-02  .808946788311E-05  .515371443367E+04
     .540000000000E+06  .335276126862E-07  .464344545197E+00  .800937414169E-07
     .944171550341E+00  .213281250000E+03 -.282932482106E+01 -.818141221723E-08
    -.473233997810E-09  .100000000000E+01  .236200000000E+04  .000000000000E+00
     .240000000000E+01  .000000000000E+00 -.791624188423E-08  .813000000000E+03
     .535596000000E+06  .400000000000E+01
 9 25  4 19  6  0  0.0  .635218340904E-03  .111413100967E-10  .000000000000E+00
     .790000000000E+02 -.451875000000E+02  .459197698856E-08 -.213290976165E+01
    -.223889946938E-05  .300314801279E-02  .821240246296E-05  .515372891235E+04
     .540000000000E+06  .558793544769E-08 -.167544445267E+01  .502914190292E-07
     .961045318526E+00  .224187500000E+03  .201693931547E+01 -.789354308347E-08
     .345014371233E-09  .100000000000E+01  .236200000000E+04  .000000000000E+00
     .240000000000E+01  .000000000000E+00  .465661287308E-09  .790000000000E+02
     .535596000000E+06  .400000000000E+01
17 25  4 19  6  0  0.0  .321445055306E-03 -.184172677109E-10  .000000000000E+00
     .110000000000E+03  .884687500000E+02  .416124476112E-08 -.267712142115E+01
     .462494790554E-05  .130735568237E-01  .637955963612E-05  .515367143822E+04
     .540000000000E+06  .163912773132E-06  .155129882381E+01  .670552253723E-07
     .963749036907E+00  .259687500000E+03 -.121896464869E+01 -.767889128522E-08
    -.953611150304E-10  .100000000000E+01  .236200000000E+04  .000000000000E+00
     .240000000000E+01  .000000000000E+00 -.111758708954E-07  .110000000000E+03
     .535596000000E+06  .400000000000E+01
 3 25  4 19  5 59 28.0  .686555635184E-03  .272848410532E-11  .000000000000E+00
     .890000000000E+02 -.697500000000E+02  .382944522605E-08  .404252193424E+00
    -.388734042645E-05  .601480389014E-02  .602751970291E-05  .515354649925E+04
     .539968000000E+06 -.502914190292E-07 -.268841107450E+01  .242143869400E-07
     .989387438427E+00  .279843750000E+03  .113770036277E+01 -.785139847083E-08
     .760745973838E-10  .100000000000E+01  .236200000000E+04  .000000000000E+00
     .240000000000E+01  .000000000000E+00  .139698386192E-08  .890000000000E+02
     .536106000000E+06  .400000000000E+01
 5 25  4 19  6  0  0.0 -.207638368011E-03 -.102318153949E-11  .000000000000E+00
     .300000000000E+01 -.922812500000E+02  .403981113149E-08 -.238139609217E+01
    -.487081706524E-05  .569694093429E-02  .542216002941E-05  .515379043388E+04
     .540000000000E+06  .521540641785E-07 -.274395638868E+01  .484287738800E-07
     .976200886502E+00  .275375000000E+03  .132672304958E+01 -.785032699763E-08
     .113576159474E-09  .100000000000E+01  .236200000000E+04  .000000000000E+00
     .240000000000E+01  .000000000000E+00 -.107102096081E-07  .300000000000E+01
     .539166000000E+06  .400000000000E+01
14 25  4 19  8  0  0.0  .632861163467E-03  .579802872380E-11  .000000000000E+00
     .460000000000E+02  .275000000000E+02  .501056585304E-08  .995861156677E+00
     .161305069923E-05  .564452295657E-02  .809691846371E-05  .515371455765E+04
     .547200000000E+06  .130385160446E-07  .464285487194E+00  .502914190292E-07
     .944168108094E+00  .212843750000E+03 -.282931457331E+01 -.819855578847E-08
    -.471091051405E-09  .100000000000E+01  .236200000000E+04  .000000000000E+00
     .240000000000E+01  .000000000000E+00 -.791624188423E-08  .814000000000E+03
     .540006000000E+06  .400000000000E+01
